satname,norad_id,inclination_deg,eccentricity,mean_motion_rev_per_day,perigee_km,apogee_km,l1,l2
STARLINK-1167,45071,53.0534,0.0001267,15.06385165,546.3795780267565,548.1344728728063,1 45071U 20006AD  25287.16305988  .00001267  00000+0  10396-3 0  9996,2 45071  53.0534 204.4041 0001267  83.3847 276.7286 15.06385165314650
STARLINK-1168,45072,53.0531,0.0001435,15.06410839,546.1845554125421,548.1721209145953,1 45072U 20006AE  25287.16674127  .00007388  00000+0  51422-3 0  9996,2 45072  53.0531 204.3864 0001435  78.8685 281.2465 15.06410839314653
STARLINK-1172,45074,53.053,0.0001491,15.06411634,546.1433374797261,548.2084657869937,1 45074U 20006AG  25287.04511291  .00018421  00000+0  12519-2 0  9990,2 45074  53.0530 204.9331 0001491  76.8153 283.3003 15.06411634314632
STARLINK-1153,45080,53.0515,0.0001283,15.0642275,546.2533200680564,548.0303466166924,1 45080U 20006AN  25287.08932992  .00012789  00000+0  87536-3 0  9999,2 45080  53.0515 204.7329 0001283 106.6169 253.4961 15.06422750314648
STARLINK-1151,45081,53.054,0.0001555,15.06427234,546.0512121865468,548.2049696298182,1 45081U 20006AP  25287.20729383  .00013851  00000+0  94626-3 0  9991,2 45081  53.0540 204.2789 0001555  85.4427 274.6739 15.06427234314667
STARLINK-1190,45083,53.0436,0.0006564,15.81559088,321.63045391001106,330.4316857520844,1 45083U 20006AR  25287.33335648  .00153606  00000+0  74311-3 0  9996,2 45083  53.0436 164.1721 0006564 128.4065 323.5071 15.81559088  6009
STARLINK-1173,45084,53.0383,7.92e-05,15.98713969,277.45867282683594,278.51300268433624,1 45084U 20006AS  25287.33335648  .00452693  97708-4  93370-3 0  9997,2 45084  53.0383 125.8909 0000792 341.5330 325.3382 15.98713969  5971
STARLINK-1185,45087,53.053,0.0001502,15.06411701,546.1355143236779,548.2158782576425,1 45087U 20006AV  25287.11699194  .00015823  00000+0  10784-2 0  9996,2 45087  53.0530 184.6078 0001502  75.4303 284.6852 15.06411701314937
STARLINK-1183,45088,53.0542,0.000155,15.06410746,546.105199270176,548.2520471133648,1 45088U 20006AW  25287.00640714  .00011539  00000+0  79207-3 0  9995,2 45088  53.0542 185.1047 0001550  75.4813 284.6348 15.06410746314918
STARLINK-1176,45090,53.0443,0.0002567,15.94790275,287.1873980943701,290.6102542875369,1 45090U 20006AY  25287.33335648  .00395158  72990-4  10118-2 0  9990,2 45090  53.0443 124.1318 0002567 311.5307 268.0076 15.94790275  6014
STARLINK-1142,45093,53.0354,0.0003609,15.55921213,397.03005762068005,401.92213875495236,1 45093U 20006BB  25287.27277029  .00110620  00000+0  15515-2 0  9997,2 45093  53.0354 123.5968 0003609 174.6754 185.4296 15.55921213315805
STARLINK-1147,45095,53.0271,0.000741,16.27942981,193.2006598879043,202.9466040444786,1 45095U 20006BD  25287.85238212  .03893640  12039-4  10003-2 0  9994,2 45095  53.0271 115.3843 0007410 289.9360  70.0883 16.27942981315966
STARLINK-1152,45096,53.0412,0.0009271,15.22534549,491.82364633696307,504.5737479866402,1 45096U 20006BE  25287.07293328  .00013258  00000+0  57692-3 0  9990,2 45096  53.0412 169.0767 0009271 110.9325 249.2664 15.22534549315144
STARLINK-1184,45098,53.0534,0.0001438,15.06405394,546.1991634091237,548.1908888998469,1 45098U 20006BG  25287.08749411  .00009210  00000+0  63627-3 0  9990,2 45098  53.0534 184.7410 0001438 109.1447 250.9698 15.06405394314920
STARLINK-1193,45100,53.0538,0.0001418,15.06419966,546.1683599513271,548.1323714482387,1 45100U 20006BJ  25287.15013666  .00008217  00000+0  56955-3 0  9990,2 45100  53.0538 184.4594 0001418  91.3429 268.7723 15.06419966314935
STARLINK-1143,45179,53.0542,0.0006787,15.37875594,447.75662208543145,457.0283828320689,1 45179U 20012B   25287.31111350  .00075214  00000+0  19801-2 0  9999,2 45179  53.0542 311.4130 0006787 336.2873  23.7816 15.37875594313233
STARLINK-1202,45183,53.056,0.0001493,15.06383013,546.2296588232102,548.2975834486806,1 45183U 20012F   25286.88108460 -.00005278  00000+0 -33586-3 0  9995,2 45183  53.0560 345.6723 0001493 102.4289 257.6867 15.06383013312710
STARLINK-1216,45185,53.0549,0.0002145,15.06394245,545.7437051914658,548.7146872896537,1 45185U 20012H   25287.13909203 -.00003952  00000+0 -24657-3 0  9996,2 45185  53.0549 344.5093 0002145  80.7559 279.3673 15.06394245312692
STARLINK-1225,45187,53.0546,0.0002329,15.06398766,545.6024254131507,548.8282545331112,1 45187U 20012K   25287.15752334 -.00001479  00000+0 -80397-4 0  9997,2 45187  53.0546 344.4280 0002329  76.2883 283.8365 15.06398766312748
STARLINK-1230,45189,53.0551,0.0002392,15.06400227,545.5543190074168,548.8674054247003,1 45189U 20012M   25287.16121398 -.00000343  00000+0 -40811-5 0  9997,2 45189  53.0551 344.4122 0002392  87.3890 272.7373 15.06400227309975
STARLINK-1234,45190,53.0536,0.0001301,15.16107442,516.7213697945708,518.5156453776444,1 45190U 20012N   25287.33335648  .01093824  00000+0  51820-1 0  9996,2 45190  53.0536 303.4713 0001301  79.2824 122.2693 15.16107442  5800
STARLINK-1269,45197,53.0551,0.0001794,15.06394212,545.9868866677025,548.4717080952023,1 45197U 20012V   25287.30496984 -.00003216  00000+0 -19712-3 0  9994,2 45197  53.0551 343.7682 0001794 109.6017 250.5166 15.06394212312740
STARLINK-1154,45198,53.0546,0.0001697,15.06387412,546.0749004165109,548.4253768113567,1 45198U 20012W   25287.29575824 -.00002857  00000+0 -17302-3 0  9997,2 45198  53.0546 323.8097 0001697  92.7885 267.3298 15.06387412312994
STARLINK-1199,45201,53.0556,0.0001805,15.06396507,545.972236153817,548.4722908479407,1 45201U 20012Z   25287.30681036 -.00001651  00000+0 -91945-4 0  9994,2 45201  53.0556 323.7568 0001805  97.1338 262.9857 15.06396507313050
STARLINK-1209,45206,53.0535,0.0001475,15.12548783,527.4115745483768,529.4490118998774,1 45206U 20012AE  25287.33335648  .01638061  00000+0  85171-1 0  9998,2 45206  53.0535 303.5792 0001475  81.4588  46.0874 15.12548783  5806
STARLINK-1210,45207,53.0268,0.0013131,15.51963839,402.07795369701853,419.90756627269,1 45207U 20012AF  25287.27029227  .00051715  00000+0  84524-3 0  9992,2 45207  53.0268 269.6570 0013131 355.6168   4.4723 15.51963839313818
STARLINK-1231,45212,53.0527,0.0004031,15.10834495,530.867580463846,536.4398661449741,1 45212U 20012AL  25287.31491997  .00033973  00000+0  20279-2 0  9992,2 45212  53.0527 322.6815 0004031 331.5520  28.5251 15.10834495313024
STARLINK-1271,45217,53.0555,0.0001478,15.06385677,546.2318832131832,548.2790292232403,1 45217U 20012AR  25287.29207629 -.00000597  00000+0 -21206-4 0  9992,2 45217  53.0555 323.8243 0001478  91.2894 268.8264 15.06385677313058
STARLINK-1191,45222,53.0545,0.0001407,15.06382535,546.2906820914995,548.2394902385458,1 45222U 20012AW  25287.30128549 -.00001675  00000+0 -93640-4 0  9992,2 45222  53.0545 303.7808 0001407  82.2321 277.8828 15.06382535313331
STARLINK-1212,45223,53.0543,0.0001324,15.06399308,546.2967623895483,548.1305952492994,1 45223U 20012AX  25287.31979165  .00001199  00000+0  99403-4 0  9994,2 45223  53.0543 304.3539 0001324  85.6114 274.5027 15.06399308313334
STARLINK-1215,45225,53.0548,0.0001336,15.06392914,546.3080461240197,548.1585050616577,1 45225U 20012AZ  25287.27548666 -.00000749  00000+0 -31371-4 0  9991,2 45225  53.0548 303.8974 0001336  89.1654 270.9488 15.06392914313280
STARLINK-1217,45226,53.0353,0.0002434,16.1323768,236.36597925278238,239.58670322729722,1 45226U 20012BA  25287.90966370  .00986535  61683-3  82712-3 0  9994,2 45226  53.0353 236.2479 0002434 186.3484 173.7521 16.13237680314247
STARLINK-1221,45227,53.0683,0.0001666,15.36052962,456.6558288339784,458.9335612747709,1 45227U 20012BB  25287.14638061  .00021173  00000+0  60345-3 0  9992,2 45227  53.0683 240.9461 0001666 282.1961  77.8855 15.36052962314143
STARLINK-1222,45228,53.056,0.0001633,15.0639161,546.1063585805941,548.3681858178952,1 45228U 20012BC  25287.30866117 -.00000530  00000+0 -16709-4 0  9998,2 45228  53.0560 303.7489 0001633  84.5860 275.5316 15.06391610313222
STARLINK-1226,45229,53.0544,0.0001465,15.06390619,546.2257417255305,548.2548772772143,1 45229U 20012BD  25287.33814820 -.00000432  00000+0 -10113-4 0  9990,2 45229  53.0544 303.6143 0001465  88.6161 271.4996 15.06390619313231
STARLINK-1227,45230,53.0542,0.0001468,15.06391888,546.2197753434248,548.2530649795845,1 45230U 20012BE  25287.33446055 -.00000543  00000+0 -17552-4 0  9990,2 45230  53.0542 303.6309 0001468  87.9999 272.1158 15.06391888313359
STARLINK-1246,45235,53.0546,0.000262,15.06400836,545.3945550689905,549.0234363707468,1 45235U 20012BK  25287.15014955 -.00002237  00000+0 -13130-3 0  9994,2 45235  53.0546 344.4597 0002620  89.6661 270.4629 15.06400836312779
STARLINK-1270,45237,53.0551,0.0001377,15.06384096,546.3066746280683,548.213929044995,1 45237U 20012BM  25287.28654631 -.00000715  00000+0 -29117-4 0  9993,2 45237  53.0551 303.8496 0001377  94.6759 265.4387 15.06384096313333
STARLINK-1279,45360,53.0545,0.0001288,15.12629608,527.2947290986549,529.0737974560743,1 45360U 20019A   25287.33335648  .01135679  00000+0  59127-1 0  9995,2 45360  53.0545  73.5711 0001288  99.4678  52.9179 15.12629608  5804
STARLINK-1301,45361,53.0534,0.0001303,15.14302931,522.1963830231416,523.9948442422547,1 45361U 20019B   25287.33335648  .01170020  00000+0  57990-1 0  9991,2 45361  53.0534  83.5323 0001303  86.1901 151.8070 15.14302931  5801
STARLINK-1306,45362,53.0488,0.0006687,15.63495639,373.0512079887876,382.08628885672806,1 45362U 20019C   25287.33335648  .00214002  00000+0  22150-2 0  9991,2 45362  53.0488  78.3136 0006687 192.3517  12.6860 15.63495639  5956
STARLINK-1262,45366,53.0529,0.0001354,15.06405587,546.2567447646252,548.1321245171257,1 45366U 20019G   25287.19808209 -.00002201  00000+0 -12889-3 0  9994,2 45366  53.0529 104.2410 0001354  64.8466 295.2663 15.06405587307654
STARLINK-1273,45367,53.0534,0.0001368,15.06395617,546.2776017141796,548.1723807549806,1 45367U 20019H   25287.22019471 -.00000410  00000+0 -86420-5 0  9998,2 45367  53.0534 104.1443 0001368  87.6807 272.4339 15.06395617307652
